[{"OBJECT_NAME":"STARLINK-30056","OBJECT_ID":"2023-119W","EPOCH":"2026-03-09T22:00:01.999584","MEAN_MOTION":15.18690363,"ECCENTRICITY":0.00012443,"INCLINATION":43.0005,"RA_OF_ASC_NODE":79.7341,"ARG_OF_PERICENTER":294.9593,"MEAN_ANOMALY":198.4792,"EPHEMERIS_TYPE":0,"CLASSIFICATION_TYPE":"U","NORAD_CAT_ID":57622,"ELEMENT_SET_NO":999,"REV_AT_EPOCH":573,"BSTAR":0.045658013,"MEAN_MOTION_DOT":0.01040204,"MEAN_MOTION_DDOT":0},{"OBJECT_NAME":"CZ-6A R\/B","OBJECT_ID":"2023-168B","EPOCH":"2026-03-09T21:13:08.722272","MEAN_MOTION":15.16100791,"ECCENTRICITY":0.00607667,"INCLINATION":97.7542,"RA_OF_ASC_NODE":104.7688,"ARG_OF_PERICENTER":339.2379,"MEAN_ANOMALY":20.6386,"EPHEMERIS_TYPE":0,"CLASSIFICATION_TYPE":"U","NORAD_CAT_ID":58200,"ELEMENT_SET_NO":999,"REV_AT_EPOCH":12979,"BSTAR":0.00029693841,"MEAN_MOTION_DOT":5.919e-5,"MEAN_MOTION_DDOT":0}]
